{
    "num_satellites": 50,
    "num_planes": 10,
    "plane_phasing": 0,
    "walker_config": [
        50,
        10,
        0
    ],
    "inclination": "MIO",
    "altitude_km": 550.0,
    "eccentricity": 0.001,
    "arg_perigee": 0.0,
    "spacecraft": [
        {
            "id": 1,
            "name": "Satellite 1",
            "tle_line1": "1     1U          25  1.00000000  .00000000  00000-0  00000-0 0    02",
            "tle_line2": "2     1  53.0000 252.0000 0010000   0.0000 216.0000 15.05490874    03",
            "semimajor_axis": 6928136.3,
            "eccentricity": 0.001,
            "inclination_deg": 53.0,
            "raan_deg": 252.0,
            "arg_perigee_deg": 0.0,
            "mean_anomaly_deg": 216.0
        },
        {
            "id": 1,
            "name": "Satellite 1",
            "tle_line1": "1     1U          25  1.00000000  .00000000  00000-0  00000-0 0    02",
            "tle_line2": "2     1  53.0000 252.0000 0010000   0.0000 288.0000 15.05490874    02",
            "semimajor_axis": 6928136.3,
            "eccentricity": 0.001,
            "inclination_deg": 53.0,
            "raan_deg": 252.0,
            "arg_perigee_deg": 0.0,
            "mean_anomaly_deg": 288.0
        },
        {
            "id": 1,
            "name": "Satellite 1",
            "tle_line1": "1     1U          25  1.00000000  .00000000  00000-0  00000-0 0    02",
            "tle_line2": "2     1  53.0000 288.0000 0010000   0.0000   0.0000 15.05490874    03",
            "semimajor_axis": 6928136.3,
            "eccentricity": 0.001,
            "inclination_deg": 53.0,
            "raan_deg": 288.0,
            "arg_perigee_deg": 0.0,
            "mean_anomaly_deg": 0.0
        },
        {
            "id": 1,
            "name": "Satellite 1",
            "tle_line1": "1     1U          25  1.00000000  .00000000  00000-0  00000-0 0    02",
            "tle_line2": "2     1  53.0000 288.0000 0010000   0.0000  72.0000 15.05490874    02",
            "semimajor_axis": 6928136.3,
            "eccentricity": 0.001,
            "inclination_deg": 53.0,
            "raan_deg": 288.0,
            "arg_perigee_deg": 0.0,
            "mean_anomaly_deg": 72.0
        },
        {
            "id": 1,
            "name": "Satellite 1",
            "tle_line1": "1     1U          25  1.00000000  .00000000  00000-0  00000-0 0    02",
            "tle_line2": "2     1  53.0000 288.0000 0010000   0.0000 144.0000 15.05490874    02",
            "semimajor_axis": 6928136.3,
            "eccentricity": 0.001,
            "inclination_deg": 53.0,
            "raan_deg": 288.0,
            "arg_perigee_deg": 0.0,
            "mean_anomaly_deg": 144.0
        },
        {
            "id": 1,
            "name": "Satellite 1",
            "tle_line1": "1     1U          25  1.00000000  .00000000  00000-0  00000-0 0    02",
            "tle_line2": "2     1  53.0000 288.0000 0010000   0.0000 216.0000 15.05490874    02",
            "semimajor_axis": 6928136.3,
            "eccentricity": 0.001,
            "inclination_deg": 53.0,
            "raan_deg": 288.0,
            "arg_perigee_deg": 0.0,
            "mean_anomaly_deg": 216.0
        },
        {
            "id": 1,
            "name": "Satellite 1",
            "tle_line1": "1     1U          25  1.00000000  .00000000  00000-0  00000-0 0    02",
            "tle_line2": "2     1  53.0000 288.0000 0010000   0.0000 288.0000 15.05490874    01",
            "semimajor_axis": 6928136.3,
            "eccentricity": 0.001,
            "inclination_deg": 53.0,
            "raan_deg": 288.0,
            "arg_perigee_deg": 0.0,
            "mean_anomaly_deg": 288.0
        },
        {
            "id": 1,
            "name": "Satellite 1",
            "tle_line1": "1     1U          25  1.00000000  .00000000  00000-0  00000-0 0    02",
            "tle_line2": "2     1  53.0000 324.0000 0010000   0.0000   0.0000 15.05490874    04",
            "semimajor_axis": 6928136.3,
            "eccentricity": 0.001,
            "inclination_deg": 53.0,
            "raan_deg": 324.0,
            "arg_perigee_deg": 0.0,
            "mean_anomaly_deg": 0.0
        },
        {
            "id": 1,
            "name": "Satellite 1",
            "tle_line1": "1     1U          25  1.00000000  .00000000  00000-0  00000-0 0    02",
            "tle_line2": "2     1  53.0000 324.0000 0010000   0.0000  72.0000 15.05490874    03",
            "semimajor_axis": 6928136.3,
            "eccentricity": 0.001,
            "inclination_deg": 53.0,
            "raan_deg": 324.0,
            "arg_perigee_deg": 0.0,
            "mean_anomaly_deg": 72.0
        },
        {
            "id": 1,
            "name": "Satellite 1",
            "tle_line1": "1     1U          25  1.00000000  .00000000  00000-0  00000-0 0    02",
            "tle_line2": "2     1  53.0000 324.0000 0010000   0.0000 144.0000 15.05490874    03",
            "semimajor_axis": 6928136.3,
            "eccentricity": 0.001,
            "inclination_deg": 53.0,
            "raan_deg": 324.0,
            "arg_perigee_deg": 0.0,
            "mean_anomaly_deg": 144.0
        },
        {
            "id": 1,
            "name": "Satellite 1",
            "tle_line1": "1     1U          25  1.00000000  .00000000  00000-0  00000-0 0    02",
            "tle_line2": "2     1  53.0000 324.0000 0010000   0.0000 216.0000 15.05490874    03",
            "semimajor_axis": 6928136.3,
            "eccentricity": 0.001,
            "inclination_deg": 53.0,
            "raan_deg": 324.0,
            "arg_perigee_deg": 0.0,
            "mean_anomaly_deg": 216.0
        },
        {
            "id": 1,
            "name": "Satellite 1",
            "tle_line1": "1     1U          25  1.00000000  .00000000  00000-0  00000-0 0    02",
            "tle_line2": "2     1  53.0000 324.0000 0010000   0.0000 288.0000 15.05490874    02",
            "semimajor_axis": 6928136.3,
            "eccentricity": 0.001,
            "inclination_deg": 53.0,
            "raan_deg": 324.0,
            "arg_perigee_deg": 0.0,
            "mean_anomaly_deg": 288.0
        }
    ]
}